0 INTELSAT 907
1 27683U 03007A   13280.36081723 -.00000211  00000-0  00000+0 0  5327
2 27683 000.0006 283.5862 0003005 273.8510 281.1458 01.00271779 39007
0 INTELSAT 907
1 27683U 03007A   13283.33990465 -.00000219  00000-0  00000+0 0  5338
2 27683 000.0231 309.8891 0002445 239.0200 285.0738 01.00271271 39032
0 INTELSAT 907
1 27683U 03007A   13284.29971527 -.00000222  00000-0  00000+0 0  5347
2 27683 000.0213 313.6579 0002908 234.2792 272.5249 01.00270909 39041
0 INTELSAT 907
1 27683U 03007A   13285.30906880 -.00000225  00000-0  00000+0 0  5354
2 27683 000.0209 314.9415 0002989 231.2903 278.5900 01.00270723 39054
0 INTELSAT 907
1 27683U 03007A   13286.15744919 -.00000227  00000-0  00000+0 0  5364
2 27683 000.0197 318.0401 0003098 225.5547 227.4805 01.00270655 39064
0 INTELSAT 907
1 27683U 03007A   13287.25990179 -.00000228  00000-0  00000+0 0  5379
2 27683 000.0202 318.9948 0003113 226.3875 263.6599 01.00270594 39072
0 INTELSAT 907
1 27683U 03007A   13288.86993297 -.00000227  00000-0  00000+0 0  5381
2 27683 000.0211 324.5370 0003124 223.1945 122.5046 01.00270458 39089
0 INTELSAT 907
1 27683U 03007A   13289.77407652  .00000000  00000-0  10000-3 0  5391
2 27683 000.0217 005.3771 0002249 162.3697 108.8296 01.00265148 39094
0 INTELSAT 907
1 27683U 03007A   13290.38120368 -.00000225  00000-0  00000+0 0  5391
2 27683 000.0249 338.2029 0003132 209.9635 307.6044 01.00269906 39103
0 INTELSAT 907
1 27683U 03007A   13291.87153068 -.00000221  00000-0  00000+0 0  5407
2 27683 000.0263 341.0656 0003205 213.4268 119.2767 01.00270554 39111
0 INTELSAT 907
1 27683U 03007A   13293.28047955 -.00000219  00000-0  00000+0 0  5419
2 27683 000.0287 349.2408 0003066 204.3106 268.8262 01.00270551 39137
